STARLINK-2630_new
1 18381C 21038AE  21326.12796403  .00008745  00000-0  58599-3 0  3261
2 18381  53.0549 193.1695 0001753  73.2030 140.8713 15.06384604    19
STARLINK-2630_old
1 28381C 21038AE  21325.13106770  .00007955  00000-0  53318-3 0  3258
2 28381  53.0554 197.6444 0001689  72.4834 132.4357 15.06378866    11
